SNUGLITE                
1 43784U 18099AC  23255.08420755  .00006104  00000+0  47974-3 0  9995
2 43784  97.5471 314.4422 0009375 165.3866 194.7631 15.01191902260705
ITASAT 1                
1 43786U 18099AE  23255.08721972  .00004920  00000+0  39619-3 0  9993
2 43786  97.5646 315.3269 0017338 196.4796 163.5867 15.00272958260676
KAZSCISAT-1             
1 43787U 18099AF  23255.07792178  .00010579  00000+0  75001-3 0  9991
2 43787  97.5485 315.4876 0008156 178.7857 181.3391 15.04932029260836
EAGLET-I                
1 43790U 18099AJ  23255.09100327  .00003870  00000+0  31782-3 0  9990
2 43790  97.5659 315.7251 0012840 196.5393 163.5414 14.99696021260404
ESEO                    
1 43792U 18099AL  23254.40592369  .00001253  00000+0  11085-3 0  9994
2 43792  97.5624 313.2589 0012086 188.1117 171.9913 14.98002267260294
CSIM-FD                 
1 43793U 18099AM  23255.09603685  .00011672  00000+0  80481-3 0  9997
2 43793  97.5703 318.7902 0015768 184.4255 175.6835 15.05872836260654
ASTROCAST 0.1           
1 43798U 18099AS  23254.13368440  .00010946  00000+0  79136-3 0  9991
2 43798  97.5769 317.0746 0012394 169.3230 190.8261 15.04155307260687
JY1SAT (JO-97)          
1 43803U 18099AX  23255.09015580  .00006869  00000+0  52906-3 0  9993
2 43803  97.5674 315.5003 0013248 159.7151 200.4603 15.01887748260734
SUOMI-100               
1 43804U 18099AY  23254.44147146  .00006578  00000+0  51118-3 0  9997
2 43804  97.5746 314.6245 0017733 175.8306 184.3069 15.01510674260633
AL-FARABI 2             
1 43805U 18099AZ  23254.40980725  .00007838  00000+0  57757-3 0  9997
2 43805  97.5522 315.7195 0013000 163.8359 196.3284 15.03525555260706
CENTAURI-1              
1 43809U 18099BD  23254.69322125  .00004393  00000+0  35647-3 0  9993
2 43809  97.5619 314.7472 0016837 193.4943 166.5833 15.00047343260332
CHOMPTT                 
1 43855U 18104G   23254.57610554  .00031123  00000+0  65470-3 0  9992
2 43855  85.0246 107.1741 0010895   4.8196 355.3162 15.45091366263897
UWE-4                   
1 43880U 18111E   23254.25358144  .00006312  00000+0  46840-3 0  9999
2 43880  97.6258 158.1261 0015979 236.4336 123.5365 15.03309461257296
ZACUBE-2                
1 43907U 18111AH  23255.10365059  .00038366  00000+0  79180-3 0  9994
2 43907  97.1227 132.8865 0010421 253.0165 106.9943 15.45710725262555
MICRODRAGON             
1 43935U 19003D   23255.03418810  .00023880  00000+0  64427-3 0  9995
2 43935  97.1013 271.5655 0012493  10.7755 349.3756 15.37702943258768
FORMOSAT 7-4            
1 44350U 19036M   23254.39763460  .00008019  00000+0  45089-3 0  9995
2 44350  23.9984 155.3590 0000466  81.8123 278.2433 15.10681796231740
METEOR-M2 2             
1 44387U 19038A   23255.10100003  .00000085  00000+0  56897-4 0  9990
2 44387  98.7849 218.8649 0002329  65.3161 294.8260 14.23804064217675
VDNH-80                 
1 44392U 19038G   23255.05942674  .00033017  00000+0  10057-2 0  9995
2 44392  97.6783 239.3901 0013377   9.8890 350.2613 15.33828969231602
D-STAR ONE (LIGHTSAT)   
1 44393U 19038H   23254.50778251  .00035078  00000+0  10365-2 0  9994
2 44393  97.6784 239.0098 0013347  11.4847 348.6698 15.34777452231735
AMGU-1 (AMURSAT)        
1 44394U 19038J   23255.07092064  .00041792  00000+0  11408-2 0  9998
2 44394  97.6757 240.1300 0012136  10.8217 349.3286 15.37234276231864
DOT-1                   
1 44399U 19038P   23254.47615137  .00016764  00000+0  66389-3 0  9998
2 44399  97.6897 234.8860 0019301  22.2148 337.9921 15.25329143231422
SOKRAT                  
1 44404U 19038U   23254.51815767  .00039695  00000+0  11056-2 0  9999
2 44404  97.6771 238.9974 0013020  13.4653 346.6935 15.36607934231742
LUCKY-7                 
1 44406U 19038W   23254.64537633  .00019221  00000+0  73074-3 0  9990
2 44406  97.6872 235.8791 0018283  12.6427 347.5266 15.26676669231506
D-STAR ONE (EXOCONNECT) 
1 44410U 19038AA  23254.70667895  .00257535  00000+0  21216-2 0  9998
2 44410  97.6599 246.5847 0003562  74.0999 286.0654 15.69579909232299
NARSSCUBE-2             
1 44415U 19022E   23254.52491067  .00041612  00000+0  62832-3 0  9999
2 44415  51.6336  69.7263 0008869 258.8621 101.1373 15.54273246229716
DUCHIFAT-3              
1 44854U 19089C   23254.80603450  .00009506  00000+0  61402-3 0  9999
2 44854  36.9610 293.0397 0008148 299.2707  60.7223 15.07744734205900
OPS-SAT                 
1 44878U 19092F   23254.47403153  .00032423  00000+0  84105-3 0  9999
2 44878  97.4727  84.6032 0008116 177.7111 182.4173 15.38905447207048
FLORIPASAT-1            
1 44885U 19093G   23255.06802423  .00004712  00000+0  53770-3 0  9991
2 44885  97.8645 335.2901 0014299 151.0283 209.1729 14.86503384201856
BY70-2                  
1 45857U 20042B   23255.11677977  .00028735  00000+0  26870-2 0  9998
2 45857  97.9224 335.5171 0008986  88.3319 271.8929 14.94034584172507
SALSAT                  
1 46495U 20068K   23255.10290635  .00005093  00000+0  32919-3 0  9990
2 46495  97.7754 204.1052 0015215 177.1150 183.0168 15.08581826162177
NETSAT-4                
1 46504U 20068U   23255.09282786  .00007659  00000+0  49113-3 0  9991
2 46504  97.7671 201.8193 0009196 226.5575 133.4888 15.08764453162006
NETSAT-3                
1 46505U 20068V   23255.07138207  .00008117  00000+0  52367-3 0  9993
2 46505  97.7653 201.5708 0008226 236.9461 123.0977 15.08529385162005
NETSAT-1                
1 46506U 20068W   23255.06952502  .00007067  00000+0  46230-3 0  9990
2 46506  97.7666 201.4107 0006608 248.8282 111.2240 15.08074980161992
NETSAT-2                
1 46507U 20068X   23254.43167478  .00006619  00000+0  42628-3 0  9990
2 46507  97.7659 200.8712 0005525 258.2222 101.8386 15.08682370161855
UVSQ-SAT                
1 47438U 21006AB  23255.12583463  .00020536  00000+0  77034-3 0  9993
2 47438  97.3761 311.1097 0010670 131.5432 228.6724 15.27204918145905
SOMP2B                  
1 47445U 21006AJ  23254.43883825  .00018044  00000+0  69593-3 0  9991
2 47445  97.3726 309.5408 0010420 138.1980 222.0056 15.26313084145769
CAS-5A                  
1 54684U 22167C   23255.05940947  .00015877  00000+0  82317-3 0  9991
2 54684  97.5730  32.2250 0013239  39.0485 321.1700 15.16175580 41830
